ISS (ZARYA)             
1 25544U 98067A   25334.54411181  .00007982  00000+0  15180-3 0  9995
2 25544  51.6312 202.8529 0003690 187.0517 173.0420 15.49206887540966
CSS (TIANHE)            
1 48274U 21035A   25334.73382892  .00016075  00000+0  20845-3 0  9995
2 48274  41.4667  89.5523 0010491 301.4921  58.4891 15.58437522262155
ISS (NAUKA)             
1 49044U 21066A   25334.54411181  .00007982  00000+0  15180-3 0  9991
2 49044  51.6312 202.8529 0003690 187.0517 173.0420 15.49206888230447
FREGAT DEB              
1 49271U 11037PF  25334.10220946  .00006404  00000+0  14226-1 0  9995
2 49271  51.6202 236.7991 0869985 196.4494 160.6386 12.34314267200375
CSS (WENTIAN)           
1 53239U 22085A   25334.60566182  .00016368  00000+0  21219-3 0  9991
2 53239  41.4666  90.3296 0010499 300.6819  59.2984 15.58433763173845
CSS (MENGTIAN)          
1 54216U 22143A   25334.60566182  .00016368  00000+0  21219-3 0  9992
2 54216  41.4666  90.3296 0010499 300.6819  59.2984 15.58433763158642
SOYUZ-MS 27             
1 63520U 25072A   25334.54411181  .00007982  00000+0  15180-3 0  9997
2 63520  51.6312 202.8529 0003690 187.0517 173.0420 15.49206888 20203
SHENZHOU-20 (SZ-20)     
1 63632U 25082A   25334.60566182  .00016368  00000+0  21219-3 0  9999
2 63632  41.4666  90.3296 0010499 300.6819  59.2984 15.58433763255305
PROGRESS-MS 31          
1 64751U 25146A   25334.54411181  .00007982  00000+0  15180-3 0  9996
2 64751  51.6312 202.8529 0003690 187.0517 173.0420 15.49206888  6754
TIANZHOU-9              
1 64786U 25149A   25334.60566182  .00016368  00000+0  21219-3 0  9994
2 64786  41.4666  90.3296 0010499 300.6819  59.2984 15.58433763255306
CREW DRAGON 11          
1 65077U 25166A   25334.54411181  .00007982  00000+0  15180-3 0  9990
2 65077  51.6312 202.8529 0003690 187.0517 173.0420 15.49206888  2145
DRAGON CRS-33           
1 65304U 25186A   25334.54411181  .00007982  00000+0  15180-3 0  9995
2 65304  51.6312 202.8529 0003690 187.0517 173.0420 15.49206888   113
